COMMENT,ORIGINATOR,NORAD_CAT_ID,OBJECT_NAME,OBJECT_TYPE,CLASSIFICATION_TYPE,INTLDES,EPOCH,EPOCH_MICROSECONDS,MEAN_MOTION,ECCENTRICITY,INCLINATION,RA_OF_ASC_NODE,ARG_OF_PERICENTER,MEAN_ANOMALY,EPHEMERIS_TYPE,ELEMENT_SET_NO,REV_AT_EPOCH,BSTAR,MEAN_MOTION_DOT,MEAN_MOTION_DDOT,FILE,TLE_LINE0,TLE_LINE1,TLE_LINE2,OBJECT_ID,OBJECT_NUMBER,SEMIMAJOR_AXIS,PERIOD,APOGEE,PERIGEE,DECAYED
"GENERATED VIA SPACETRACK.ORG API","18 SPCS","55087","SPACEBEE-167","PAYLOAD","U","23001CG","2024-03-13 03:21:46","183104","15.33895825","0.0011682","97.4343","137.3937","135.1256","225.0933","0","999","6625","0.0010229","0.00033637","0","4223455","0 SPACEBEE-167","1 55087U 23001CG  24073.14011786  .00033637  00000-0  10229-2 0  9993","2 55087  97.4343 137.3937 0011682 135.1256 225.0933 15.33895825 66253","2023-001CG","55087","6842.339","93.879","472.197","456.211","0"
"GENERATED VIA SPACETRACK.ORG API","18 SPCS","55087","SPACEBEE-167","PAYLOAD","U","23001CG","2024-03-14 02:50:49","623360","15.33968976","0.0011706","97.434","138.3789","132.0087","228.2154","0","999","6640","0.0011175","0.00036856","0","4224518","0 SPACEBEE-167","1 55087U 23001CG  24074.11862990  .00036856  00000-0  11175-2 0  9999","2 55087  97.4340 138.3789 0011706 132.0087 228.2154 15.33968976 66406","2023-001CG","55087","6842.122","93.874","471.996","455.977","0"
"GENERATED VIA SPACETRACK.ORG API","18 SPCS","55087","SPACEBEE-167","PAYLOAD","U","23001CG","2024-03-14 02:50:49","623360","15.33968976","0.0011706","97.434","138.3789","132.0087","228.2154","0","999","6640","0.0011175","0.00036856","0","4225152","0 SPACEBEE-167","1 55087U 23001CG  24074.11862990  .00036856  00000-0  11175-2 0  9999","2 55087  97.4340 138.3789 0011706 132.0087 228.2154 15.33968976 66406","2023-001CG","55087","6842.122","93.874","471.996","455.977","0"
"GENERATED VIA SPACETRACK.ORG API","18 SPCS","55087","SPACEBEE-167","PAYLOAD","U","23001CG","2024-03-14 10:40:29","849088","15.33993971","0.0011707","97.4341","138.7073","130.8968","229.329","0","999","6645","0.0011059","0.000365","0","4225645","0 SPACEBEE-167","1 55087U 23001CG  24074.44478992  .00036500  00000-0  11059-2 0  9997","2 55087  97.4341 138.7073 0011707 130.8968 229.3290 15.33993971 66453","2023-001CG","55087","6842.047","93.873","471.922","455.902","0"
"GENERATED VIA SPACETRACK.ORG API","18 SPCS","55087","SPACEBEE-167","PAYLOAD","U","23001CG","2024-03-15 03:53:44","784960","15.34048917","0.0011722","97.4338","139.4298","128.5522","231.6773","0","999","6656","0.0011606","0.00038385","0","4226117","0 SPACEBEE-167","1 55087U 23001CG  24075.16232390  .00038385  00000-0  11606-2 0  9998","2 55087  97.4338 139.4298 0011722 128.5522 231.6773 15.34048917 66569","2023-001CG","55087","6841.884","93.869","471.769","455.729","0"
"GENERATED VIA SPACETRACK.ORG API","18 SPCS","55087","SPACEBEE-167","PAYLOAD","U","23001CG","2024-03-15 22:40:53","209056","15.34100398","0.0011692","97.4337","140.2178","126.1701","234.0625","0","999","6668","0.00097613","0.00032298","0","4227250","0 SPACEBEE-167","1 55087U 23001CG  24075.94506029  .00032298  00000-0  97613-3 0  9997","2 55087  97.4337 140.2178 0011692 126.1701 234.0625 15.34100398 66682","2023-001CG","55087","6841.731","93.866","471.595","455.597","0"
"GENERATED VIA SPACETRACK.ORG API","18 SPCS","55087","SPACEBEE-167","PAYLOAD","U","23001CG","2024-03-16 03:22:39","932544","15.34113721","0.0011636","97.4338","140.415","125.6569","234.5759","0","999","6671","0.00093313","0.00030879","0","4228456","0 SPACEBEE-167","1 55087U 23001CG  24076.14073996  .00030879  00000-0  93313-3 0  9998","2 55087  97.4338 140.4150 0011636 125.6569 234.5759 15.34113721 66710","2023-001CG","55087","6841.691","93.865","471.517","455.595","0"
"GENERATED VIA SPACETRACK.ORG API","18 SPCS","55087","SPACEBEE-167","PAYLOAD","U","23001CG","2024-03-16 14:20:08","457504","15.34143896","0.0011649","97.4338","140.8748","124.2244","236.0104","0","999","6678","0.00093123","0.00030845","0","4228482","0 SPACEBEE-167","1 55087U 23001CG  24076.59732011  .00030845  00000-0  93123-3 0  9999","2 55087  97.4338 140.8748 0011649 124.2244 236.0104 15.34143896 66780","2023-001CG","55087","6841.602","93.863","471.436","455.497","0"
"GENERATED VIA SPACETRACK.ORG API","18 SPCS","55087","SPACEBEE-167","PAYLOAD","U","23001CG","2024-03-16 17:27:59","313312","15.34152564","0.0011653","97.4338","141.0062","123.8098","236.4256","0","999","6680","0.00093042","0.00030826","0","4229019","0 SPACEBEE-167","1 55087U 23001CG  24076.72776983  .00030826  00000-0  93042-3 0  9999","2 55087  97.4338 141.0062 0011653 123.8098 236.4256 15.34152564 66806","2023-001CG","55087","6841.576","93.863","471.413","455.468","0"
"GENERATED VIA SPACETRACK.ORG API","18 SPCS","55087","SPACEBEE-167","PAYLOAD","U","23001CG","2024-03-17 02:51:31","510080","15.34179756","0.0011651","97.4338","141.4003","122.543","237.694","0","999","6686","0.00098198","0.00032575","0","4230125","0 SPACEBEE-167","1 55087U 23001CG  24077.11911470  .00032575  00000-0  98198-3 0  9995","2 55087  97.4338 141.4003 0011651 122.5430 237.6940 15.34179756 66860","2023-001CG","55087","6841.495","93.861","471.331","455.389","0"
"GENERATED VIA SPACETRACK.ORG API","18 SPCS","55087","SPACEBEE-167","PAYLOAD","U","23001CG","2024-03-17 16:56:48","780096","15.34216109","0.001169","97.4339","141.9915","120.6794","239.5602","0","999","6695","0.00090393","0.00030004","0","4230661","0 SPACEBEE-167","1 55087U 23001CG  24077.70612014  .00030004  00000-0  90393-3 0  9996","2 55087  97.4339 141.9915 0011690 120.6794 239.5602 15.34216109 66953","2023-001CG","55087","6841.387","93.859","471.249","455.254","0"
"GENERATED VIA SPACETRACK.ORG API","18 SPCS","55087","SPACEBEE-167","PAYLOAD","U","23001CG","2024-03-17 16:56:48","780096","15.34216109","0.001169","97.4339","141.9915","120.6794","239.5602","0","999","6695","0.00090393","0.00030004","0","4230670","0 SPACEBEE-167","1 55087U 23001CG  24077.70612014  .00030004  00000-0  90393-3 0  9996","2 55087  97.4339 141.9915 0011690 120.6794 239.5602 15.34216109 66953","2023-001CG","55087","6841.387","93.859","471.249","455.254","0"
"GENERATED VIA SPACETRACK.ORG API","18 SPCS","55087","SPACEBEE-167","PAYLOAD","U","23001CG","2024-03-18 03:54:14","637024","15.34246312","0.001169","97.4337","142.4513","119.313","240.9282","0","999","6702","0.00090651","0.00030119","0","4231680","0 SPACEBEE-167","1 55087U 23001CG  24078.16266941  .00030119  00000-0  90651-3 0  9995","2 55087  97.4337 142.4513 0011690 119.3130 240.9282 15.34246312 67028","2023-001CG","55087","6841.297","93.857","471.160","455.165","0"
"GENERATED VIA SPACETRACK.ORG API","18 SPCS","55087","SPACEBEE-167","PAYLOAD","U","23001CG","2024-03-19 03:22:58","654560","15.34326479","0.0011639","97.4336","143.4365","116.3869","243.857","0","999","6717","0.0013403","0.00044768","0","4233772","0 SPACEBEE-167","1 55087U 23001CG  24079.14095665  .00044768  00000-0  13403-2 0  9991","2 55087  97.4336 143.4365 0011639 116.3869 243.8570 15.34326479 67173","2023-001CG","55087","6841.059","93.852","470.886","454.961","0"
"GENERATED VIA SPACETRACK.ORG API","18 SPCS","55087","SPACEBEE-167","PAYLOAD","U","23001CG","2024-03-19 17:28:10","728480","15.34384387","0.001153","97.4335","144.0276","114.29","245.9549","0","999","6726","0.0014426","0.00048299","0","4233762","0 SPACEBEE-167","1 55087U 23001CG  24079.72790195  .00048299  00000-0  14426-2 0  9994","2 55087  97.4335 144.0276 0011530 114.2900 245.9549 15.34384387 67264","2023-001CG","55087","6840.887","93.849","470.639","454.864","0"
"GENERATED VIA SPACETRACK.ORG API","18 SPCS","55087","SPACEBEE-167","PAYLOAD","U","23001CG","2024-03-20 12:15:03","897792","15.34456118","0.0011553","97.4334","144.8159","111.7799","248.4674","0","999","6738","0.0012947","0.00043411","0","4234892","0 SPACEBEE-167","1 55087U 23001CG  24080.51046178  .00043411  00000-0  12947-2 0  9995","2 55087  97.4334 144.8159 0011553 111.7799 248.4674 15.34456118 67386","2023-001CG","55087","6840.673","93.844","470.441","454.635","0"
"GENERATED VIA SPACETRACK.ORG API","18 SPCS","55087","SPACEBEE-167","PAYLOAD","U","23001CG","2024-03-21 03:54:05","648832","15.34524208","0.0011483","97.4333","145.4728","109.8359","250.4123","0","999","6748","0.0015162","0.0005101","0","4235995","0 SPACEBEE-167","1 55087U 23001CG  24081.16256538  .00051010  00000-0  15162-2 0  9996","2 55087  97.4333 145.4728 0011483 109.8359 250.4123 15.34524208 67485","2023-001CG","55087","6840.471","93.840","470.191","454.481","0"
"GENERATED VIA SPACETRACK.ORG API","18 SPCS","55087","SPACEBEE-167","PAYLOAD","U","23001CG","2024-03-21 03:54:05","648832","15.34524208","0.0011483","97.4333","145.4728","109.8359","250.4123","0","999","6748","0.0015162","0.0005101","0","4236727","0 SPACEBEE-167","1 55087U 23001CG  24081.16256538  .00051010  00000-0  15162-2 0  9996","2 55087  97.4333 145.4728 0011483 109.8359 250.4123 15.34524208 67485","2023-001CG","55087","6840.471","93.840","470.191","454.481","0"
"GENERATED VIA SPACETRACK.ORG API","18 SPCS","55087","SPACEBEE-167","PAYLOAD","U","23001CG","2024-03-21 16:25:17","352768","15.34577501","0.0011442","97.4332","145.9983","108.327","251.9219","0","999","6756","0.0015571","0.00052486","0","4237326","0 SPACEBEE-167","1 55087U 23001CG  24081.68422862  .00052486  00000-0  15571-2 0  9990","2 55087  97.4332 145.9983 0011442 108.3270 251.9219 15.34577501 67568","2023-001CG","55087","6840.313","93.837","470.004","454.351","0"
"GENERATED VIA SPACETRACK.ORG API","18 SPCS","55087","SPACEBEE-167","PAYLOAD","U","23001CG","2024-03-22 03:22:33","519072","15.34642763","0.0011359","97.4331","146.4578","107.1567","253.092","0","999","6763","0.0019259","0.00065176","0","4237915","0 SPACEBEE-167","1 55087U 23001CG  24082.14066573  .00065176  00000-0  19259-2 0  9992","2 55087  97.4331 146.4578 0011359 107.1567 253.0920 15.34642763 67639","2023-001CG","55087","6840.119","93.833","469.753","454.214","0"
